STARLETTE               
1 07646U 75010A   22231.51204047 -.00000134  00000+0  84798-5 0  9998
2 07646  49.8214 221.3164 0205766 125.8826 236.1363 13.82313284401206
LAGEOS 1                
1 08820U 76039A   22230.55714458  .00000022  00000+0  00000+0 0  9993
2 08820 109.8521  60.2647 0045113 241.5197 114.4277  6.38664866823815
AJISAI (EGS)            
1 16908U 86061A   22231.54453495 -.00000101  00000+0 -23243-4 0  9995
2 16908  50.0089 125.0424 0011168 222.8145 209.4431 12.44497066306350
COSMOS 1989 (ETALON 1)  
1 19751U 89001C   22231.32795145 -.00000039  00000+0  00000+0 0  9998
2 19751  64.3162 120.2236 0023793 213.4116 249.3639  2.13156343261570
COSMOS 2024 (ETALON 2)  
1 20026U 89039C   22231.30638373 -.00000087  00000+0  00000+0 0  9996
2 20026  65.5341 358.2554 0018530 218.5219 148.0016  2.13204384258702
LAGEOS 2                
1 22195U 92070B   22229.33538639 -.00000009  00000+0  00000+0 0  9992
2 22195  52.6607  71.3163 0138337 295.4400 207.0922  6.47293764704794
STELLA                  
1 22824U 93061B   22231.56585488 -.00000050  00000+0 -13100-5 0  9992
2 22824  98.9627 254.0735 0005993 342.2166 119.4977 14.27392361505384
LARES                   
1 38077U 12006A   22231.47301332 -.00000041  00000+0 -13095-4 0  9995
2 38077  69.4920 159.6611 0011344 275.9975  83.9805 12.54931162481812
