[{"OBJECT_NAME":"STARLETTE","OBJECT_ID":"1975-010A","EPOCH":"2022-08-19T12:17:20.296608","MEAN_MOTION":13.82313284,"ECCENTRICITY":0.0205766,"INCLINATION":49.8214,"RA_OF_ASC_NODE":221.3164,"ARG_OF_PERICENTER":125.8826,"MEAN_ANOMALY":236.1363,"EPHEMERIS_TYPE":0,"CLASSIFICATION_TYPE":"U","NORAD_CAT_ID":7646,"ELEMENT_SET_NO":999,"REV_AT_EPOCH":40120,"BSTAR":8.4798e-6,"MEAN_MOTION_DOT":-1.34e-6,"MEAN_MOTION_DDOT":0},{"OBJECT_NAME":"LAGEOS 1","OBJECT_ID":"1976-039A","EPOCH":"2022-08-18T13:22:17.291712","MEAN_MOTION":6.38664866,"ECCENTRICITY":0.0045113,"INCLINATION":109.8521,"RA_OF_ASC_NODE":60.2647,"ARG_OF_PERICENTER":241.5197,"MEAN_ANOMALY":114.4277,"EPHEMERIS_TYPE":0,"CLASSIFICATION_TYPE":"U","NORAD_CAT_ID":8820,"ELEMENT_SET_NO":999,"REV_AT_EPOCH":82381,"BSTAR":0,"MEAN_MOTION_DOT":2.2e-7,"MEAN_MOTION_DDOT":0},{"OBJECT_NAME":"AJISAI (EGS)","OBJECT_ID":"1986-061A","EPOCH":"2022-08-19T13:04:07.819680","MEAN_MOTION":12.44497066,"ECCENTRICITY":0.0011168,"INCLINATION":50.0089,"RA_OF_ASC_NODE":125.0424,"ARG_OF_PERICENTER":222.8145,"MEAN_ANOMALY":209.4431,"EPHEMERIS_TYPE":0,"CLASSIFICATION_TYPE":"U","NORAD_CAT_ID":16908,"ELEMENT_SET_NO":999,"REV_AT_EPOCH":30635,"BSTAR":-2.3243e-5,"MEAN_MOTION_DOT":-1.01e-6,"MEAN_MOTION_DDOT":0},{"OBJECT_NAME":"COSMOS 1989 (ETALON 1)","OBJECT_ID":"1989-001C","EPOCH":"2022-08-19T07:52:15.005280","MEAN_MOTION":2.13156343,"ECCENTRICITY":0.0023793,"INCLINATION":64.3162,"RA_OF_ASC_NODE":120.2236,"ARG_OF_PERICENTER":213.4116,"MEAN_ANOMALY":249.3639,"EPHEMERIS_TYPE":0,"CLASSIFICATION_TYPE":"U","NORAD_CAT_ID":19751,"ELEMENT_SET_NO":999,"REV_AT_EPOCH":26157,"BSTAR":0,"MEAN_MOTION_DOT":-3.9e-7,"MEAN_MOTION_DDOT":0},{"OBJECT_NAME":"COSMOS 2024 (ETALON 2)","OBJECT_ID":"1989-039C","EPOCH":"2022-08-19T07:21:11.554272","MEAN_MOTION":2.13204384,"ECCENTRICITY":0.001853,"INCLINATION":65.5341,"RA_OF_ASC_NODE":358.2554,"ARG_OF_PERICENTER":218.5219,"MEAN_ANOMALY":148.0016,"EPHEMERIS_TYPE":0,"CLASSIFICATION_TYPE":"U","NORAD_CAT_ID":20026,"ELEMENT_SET_NO":999,"REV_AT_EPOCH":25870,"BSTAR":0,"MEAN_MOTION_DOT":-8.7e-7,"MEAN_MOTION_DDOT":0},{"OBJECT_NAME":"LAGEOS 2","OBJECT_ID":"1992-070B","EPOCH":"2022-08-17T08:02:57.384096","MEAN_MOTION":6.47293764,"ECCENTRICITY":0.0138337,"INCLINATION":52.6607,"RA_OF_ASC_NODE":71.3163,"ARG_OF_PERICENTER":295.44,"MEAN_ANOMALY":207.0922,"EPHEMERIS_TYPE":0,"CLASSIFICATION_TYPE":"U","NORAD_CAT_ID":22195,"ELEMENT_SET_NO":999,"REV_AT_EPOCH":70479,"BSTAR":0,"MEAN_MOTION_DOT":-9.0e-8,"MEAN_MOTION_DDOT":0},{"OBJECT_NAME":"STELLA","OBJECT_ID":"1993-061B","EPOCH":"2022-08-19T13:34:49.861632","MEAN_MOTION":14.27392361,"ECCENTRICITY":0.0005993,"INCLINATION":98.9627,"RA_OF_ASC_NODE":254.0735,"ARG_OF_PERICENTER":342.2166,"MEAN_ANOMALY":119.4977,"EPHEMERIS_TYPE":0,"CLASSIFICATION_TYPE":"U","NORAD_CAT_ID":22824,"ELEMENT_SET_NO":999,"REV_AT_EPOCH":50538,"BSTAR":-1.31e-6,"MEAN_MOTION_DOT":-5.0e-7,"MEAN_MOTION_DDOT":0},{"OBJECT_NAME":"LARES","OBJECT_ID":"2012-006A","EPOCH":"2022-08-19T11:21:08.350848","MEAN_MOTION":12.54931162,"ECCENTRICITY":0.0011344,"INCLINATION":69.492,"RA_OF_ASC_NODE":159.6611,"ARG_OF_PERICENTER":275.9975,"MEAN_ANOMALY":83.9805,"EPHEMERIS_TYPE":0,"CLASSIFICATION_TYPE":"U","NORAD_CAT_ID":38077,"ELEMENT_SET_NO":999,"REV_AT_EPOCH":48181,"BSTAR":-1.3095e-5,"MEAN_MOTION_DOT":-4.1e-7,"MEAN_MOTION_DDOT":0}]